ONEWEB-0027             
1 45432U 20020J   23282.83061616  .00000039  00000+0  67754-4 0  9994
2 45432  87.9176 200.8881 0001562  73.5538 286.5765 13.17648844177123
ONEWEB-0064             
1 45433U 20020K   23282.85621896 -.00000401  00000+0 -11665-2 0  9992
2 45433  87.8983 216.0144 0001683  67.5411 292.5895 13.11416788174062
ONEWEB-0018             
1 45434U 20020L   23282.88870495  .00000487  00000+0  13386-2 0  9991
2 45434  87.8989 215.9974 0002093  74.1679 285.9680 13.11421632174011
ONEWEB-0083             
1 45435U 20020M   23282.87731027  .00000434  00000+0  11893-2 0  9991
2 45435  87.8981 215.9850 0001838  76.9548 283.1785 13.11419714174056
ONEWEB-0095             
1 45436U 20020N   23282.86920702  .00000147  00000+0  37981-3 0  9999
2 45436  87.8987 216.0213 0001759  86.6115 273.5214 13.11420587174058
ONEWEB-0092             
1 45437U 20020P   23282.91300752 -.00000292  00000+0 -85995-3 0  9994
2 45437  87.8986 215.9919 0001728  87.3098 272.8228 13.11416234174177
ONEWEB-0085             
1 45438U 20020Q   23282.87082948  .00000167  00000+0  43485-3 0  9991
2 45438  87.8982 216.0086 0002010  70.9458 289.1888 13.11418618174052
ONEWEB-0096             
1 45439U 20020R   23282.87895845  .00000490  00000+0  13471-2 0  9990
2 45439  87.8980 215.9811 0002211  74.4237 285.7135 13.11416720174040
