<?xml version="1.0" encoding="UTF-8"?>
<ndm xmlns:xsi="http://www.w3.org/2001/XMLSchema-instance" xsi:noNamespaceSchemaLocation="https://sanaregistry.org/r/ndmxml_unqualified/ndmxml-2.0.0-master-2.0.xsd">
<omm id="CCSDS_OMM_VERS" version="2.0">
<header><CREATION_DATE/><ORIGINATOR/></header><body><segment><metadata><OBJECT_NAME>ONEWEB-0027</OBJECT_NAME><OBJECT_ID>2020-020J</OBJECT_ID><CENTER_NAME>EARTH</CENTER_NAME><REF_FRAME>TEME</REF_FRAME><TIME_SYSTEM>UTC</TIME_SYSTEM><MEAN_ELEMENT_THEORY>SGP4</MEAN_ELEMENT_THEORY></metadata><data><meanElements><EPOCH>2023-10-09T19:56:05.236224</EPOCH><MEAN_MOTION>13.17648844</MEAN_MOTION><ECCENTRICITY>.0001562</ECCENTRICITY><INCLINATION>87.9176</INCLINATION><RA_OF_ASC_NODE>200.8881</RA_OF_ASC_NODE><ARG_OF_PERICENTER>73.5538</ARG_OF_PERICENTER><MEAN_ANOMALY>286.5765</MEAN_ANOMALY></meanElements><tleParameters><EPHEMERIS_TYPE>0</EPHEMERIS_TYPE><CLASSIFICATION_TYPE>U</CLASSIFICATION_TYPE><NORAD_CAT_ID>45432</NORAD_CAT_ID><ELEMENT_SET_NO>999</ELEMENT_SET_NO><REV_AT_EPOCH>17712</REV_AT_EPOCH><BSTAR>.67754E-4</BSTAR><MEAN_MOTION_DOT>.39E-6</MEAN_MOTION_DOT><MEAN_MOTION_DDOT>0</MEAN_MOTION_DDOT></tleParameters></data></segment></body></omm>
<omm id="CCSDS_OMM_VERS" version="2.0">
<header><CREATION_DATE/><ORIGINATOR/></header><body><segment><metadata><OBJECT_NAME>ONEWEB-0064</OBJECT_NAME><OBJECT_ID>2020-020K</OBJECT_ID><CENTER_NAME>EARTH</CENTER_NAME><REF_FRAME>TEME</REF_FRAME><TIME_SYSTEM>UTC</TIME_SYSTEM><MEAN_ELEMENT_THEORY>SGP4</MEAN_ELEMENT_THEORY></metadata><data><meanElements><EPOCH>2023-10-09T20:32:57.318144</EPOCH><MEAN_MOTION>13.11416788</MEAN_MOTION><ECCENTRICITY>.0001683</ECCENTRICITY><INCLINATION>87.8983</INCLINATION><RA_OF_ASC_NODE>216.0144</RA_OF_ASC_NODE><ARG_OF_PERICENTER>67.5411</ARG_OF_PERICENTER><MEAN_ANOMALY>292.5895</MEAN_ANOMALY></meanElements><tleParameters><EPHEMERIS_TYPE>0</EPHEMERIS_TYPE><CLASSIFICATION_TYPE>U</CLASSIFICATION_TYPE><NORAD_CAT_ID>45433</NORAD_CAT_ID><ELEMENT_SET_NO>999</ELEMENT_SET_NO><REV_AT_EPOCH>17406</REV_AT_EPOCH><BSTAR>-.11665E-2</BSTAR><MEAN_MOTION_DOT>-.401E-5</MEAN_MOTION_DOT><MEAN_MOTION_DDOT>0</MEAN_MOTION_DDOT></tleParameters></data></segment></body></omm>
<omm id="CCSDS_OMM_VERS" version="2.0">
<header><CREATION_DATE/><ORIGINATOR/></header><body><segment><metadata><OBJECT_NAME>ONEWEB-0018</OBJECT_NAME><OBJECT_ID>2020-020L</OBJECT_ID><CENTER_NAME>EARTH</CENTER_NAME><REF_FRAME>TEME</REF_FRAME><TIME_SYSTEM>UTC</TIME_SYSTEM><MEAN_ELEMENT_THEORY>SGP4</MEAN_ELEMENT_THEORY></metadata><data><meanElements><EPOCH>2023-10-09T21:19:44.107680</EPOCH><MEAN_MOTION>13.11421632</MEAN_MOTION><ECCENTRICITY>.0002093</ECCENTRICITY><INCLINATION>87.8989</INCLINATION><RA_OF_ASC_NODE>215.9974</RA_OF_ASC_NODE><ARG_OF_PERICENTER>74.1679</ARG_OF_PERICENTER><MEAN_ANOMALY>285.9680</MEAN_ANOMALY></meanElements><tleParameters><EPHEMERIS_TYPE>0</EPHEMERIS_TYPE><CLASSIFICATION_TYPE>U</CLASSIFICATION_TYPE><NORAD_CAT_ID>45434</NORAD_CAT_ID><ELEMENT_SET_NO>999</ELEMENT_SET_NO><REV_AT_EPOCH>17401</REV_AT_EPOCH><BSTAR>.13386E-2</BSTAR><MEAN_MOTION_DOT>.487E-5</MEAN_MOTION_DOT><MEAN_MOTION_DDOT>0</MEAN_MOTION_DDOT></tleParameters></data></segment></body></omm>
<omm id="CCSDS_OMM_VERS" version="2.0">
<header><CREATION_DATE/><ORIGINATOR/></header><body><segment><metadata><OBJECT_NAME>ONEWEB-0083</OBJECT_NAME><OBJECT_ID>2020-020M</OBJECT_ID><CENTER_NAME>EARTH</CENTER_NAME><REF_FRAME>TEME</REF_FRAME><TIME_SYSTEM>UTC</TIME_SYSTEM><MEAN_ELEMENT_THEORY>SGP4</MEAN_ELEMENT_THEORY></metadata><data><meanElements><EPOCH>2023-10-09T21:03:19.607328</EPOCH><MEAN_MOTION>13.11419714</MEAN_MOTION><ECCENTRICITY>.0001838</ECCENTRICITY><INCLINATION>87.8981</INCLINATION><RA_OF_ASC_NODE>215.9850</RA_OF_ASC_NODE><ARG_OF_PERICENTER>76.9548</ARG_OF_PERICENTER><MEAN_ANOMALY>283.1785</MEAN_ANOMALY></meanElements><tleParameters><EPHEMERIS_TYPE>0</EPHEMERIS_TYPE><CLASSIFICATION_TYPE>U</CLASSIFICATION_TYPE><NORAD_CAT_ID>45435</NORAD_CAT_ID><ELEMENT_SET_NO>999</ELEMENT_SET_NO><REV_AT_EPOCH>17405</REV_AT_EPOCH><BSTAR>.11893E-2</BSTAR><MEAN_MOTION_DOT>.434E-5</MEAN_MOTION_DOT><MEAN_MOTION_DDOT>0</MEAN_MOTION_DDOT></tleParameters></data></segment></body></omm>
<omm id="CCSDS_OMM_VERS" version="2.0">
<header><CREATION_DATE/><ORIGINATOR/></header><body><segment><metadata><OBJECT_NAME>ONEWEB-0095</OBJECT_NAME><OBJECT_ID>2020-020N</OBJECT_ID><CENTER_NAME>EARTH</CENTER_NAME><REF_FRAME>TEME</REF_FRAME><TIME_SYSTEM>UTC</TIME_SYSTEM><MEAN_ELEMENT_THEORY>SGP4</MEAN_ELEMENT_THEORY></metadata><data><meanElements><EPOCH>2023-10-09T20:51:39.486528</EPOCH><MEAN_MOTION>13.11420587</MEAN_MOTION><ECCENTRICITY>.0001759</ECCENTRICITY><INCLINATION>87.8987</INCLINATION><RA_OF_ASC_NODE>216.0213</RA_OF_ASC_NODE><ARG_OF_PERICENTER>86.6115</ARG_OF_PERICENTER><MEAN_ANOMALY>273.5214</MEAN_ANOMALY></meanElements><tleParameters><EPHEMERIS_TYPE>0</EPHEMERIS_TYPE><CLASSIFICATION_TYPE>U</CLASSIFICATION_TYPE><NORAD_CAT_ID>45436</NORAD_CAT_ID><ELEMENT_SET_NO>999</ELEMENT_SET_NO><REV_AT_EPOCH>17406</REV_AT_EPOCH><BSTAR>.37981E-3</BSTAR><MEAN_MOTION_DOT>.147E-5</MEAN_MOTION_DOT><MEAN_MOTION_DDOT>0</MEAN_MOTION_DDOT></tleParameters></data></segment></body></omm>
<omm id="CCSDS_OMM_VERS" version="2.0">
<header><CREATION_DATE/><ORIGINATOR/></header><body><segment><metadata><OBJECT_NAME>ONEWEB-0092</OBJECT_NAME><OBJECT_ID>2020-020P</OBJECT_ID><CENTER_NAME>EARTH</CENTER_NAME><REF_FRAME>TEME</REF_FRAME><TIME_SYSTEM>UTC</TIME_SYSTEM><MEAN_ELEMENT_THEORY>SGP4</MEAN_ELEMENT_THEORY></metadata><data><meanElements><EPOCH>2023-10-09T21:54:43.849728</EPOCH><MEAN_MOTION>13.11416234</MEAN_MOTION><ECCENTRICITY>.0001728</ECCENTRICITY><INCLINATION>87.8986</INCLINATION><RA_OF_ASC_NODE>215.9919</RA_OF_ASC_NODE><ARG_OF_PERICENTER>87.3098</ARG_OF_PERICENTER><MEAN_ANOMALY>272.8228</MEAN_ANOMALY></meanElements><tleParameters><EPHEMERIS_TYPE>0</EPHEMERIS_TYPE><CLASSIFICATION_TYPE>U</CLASSIFICATION_TYPE><NORAD_CAT_ID>45437</NORAD_CAT_ID><ELEMENT_SET_NO>999</ELEMENT_SET_NO><REV_AT_EPOCH>17417</REV_AT_EPOCH><BSTAR>-.85995E-3</BSTAR><MEAN_MOTION_DOT>-.292E-5</MEAN_MOTION_DOT><MEAN_MOTION_DDOT>0</MEAN_MOTION_DDOT></tleParameters></data></segment></body></omm>
<omm id="CCSDS_OMM_VERS" version="2.0">
<header><CREATION_DATE/><ORIGINATOR/></header><body><segment><metadata><OBJECT_NAME>ONEWEB-0085</OBJECT_NAME><OBJECT_ID>2020-020Q</OBJECT_ID><CENTER_NAME>EARTH</CENTER_NAME><REF_FRAME>TEME</REF_FRAME><TIME_SYSTEM>UTC</TIME_SYSTEM><MEAN_ELEMENT_THEORY>SGP4</MEAN_ELEMENT_THEORY></metadata><data><meanElements><EPOCH>2023-10-09T20:53:59.667072</EPOCH><MEAN_MOTION>13.11418618</MEAN_MOTION><ECCENTRICITY>.000201</ECCENTRICITY><INCLINATION>87.8982</INCLINATION><RA_OF_ASC_NODE>216.0086</RA_OF_ASC_NODE><ARG_OF_PERICENTER>70.9458</ARG_OF_PERICENTER><MEAN_ANOMALY>289.1888</MEAN_ANOMALY></meanElements><tleParameters><EPHEMERIS_TYPE>0</EPHEMERIS_TYPE><CLASSIFICATION_TYPE>U</CLASSIFICATION_TYPE><NORAD_CAT_ID>45438</NORAD_CAT_ID><ELEMENT_SET_NO>999</ELEMENT_SET_NO><REV_AT_EPOCH>17405</REV_AT_EPOCH><BSTAR>.43485E-3</BSTAR><MEAN_MOTION_DOT>.167E-5</MEAN_MOTION_DOT><MEAN_MOTION_DDOT>0</MEAN_MOTION_DDOT></tleParameters></data></segment></body></omm>
<omm id="CCSDS_OMM_VERS" version="2.0">
<header><CREATION_DATE/><ORIGINATOR/></header><body><segment><metadata><OBJECT_NAME>ONEWEB-0096</OBJECT_NAME><OBJECT_ID>2020-020R</OBJECT_ID><CENTER_NAME>EARTH</CENTER_NAME><REF_FRAME>TEME</REF_FRAME><TIME_SYSTEM>UTC</TIME_SYSTEM><MEAN_ELEMENT_THEORY>SGP4</MEAN_ELEMENT_THEORY></metadata><data><meanElements><EPOCH>2023-10-09T21:05:42.010080</EPOCH><MEAN_MOTION>13.11416720</MEAN_MOTION><ECCENTRICITY>.0002211</ECCENTRICITY><INCLINATION>87.8980</INCLINATION><RA_OF_ASC_NODE>215.9811</RA_OF_ASC_NODE><ARG_OF_PERICENTER>74.4237</ARG_OF_PERICENTER><MEAN_ANOMALY>285.7135</MEAN_ANOMALY></meanElements><tleParameters><EPHEMERIS_TYPE>0</EPHEMERIS_TYPE><CLASSIFICATION_TYPE>U</CLASSIFICATION_TYPE><NORAD_CAT_ID>45439</NORAD_CAT_ID><ELEMENT_SET_NO>999</ELEMENT_SET_NO><REV_AT_EPOCH>17404</REV_AT_EPOCH><BSTAR>.13471E-2</BSTAR><MEAN_MOTION_DOT>.49E-5</MEAN_MOTION_DOT><MEAN_MOTION_DDOT>0</MEAN_MOTION_DDOT></tleParameters></data></segment></body></omm>

</ndm>
